[{"OBJECT_NAME":"SHIYAN-24C 01","OBJECT_ID":"2023-206A","EPOCH":"2026-03-09T21:26:37.340736","MEAN_MOTION":14.97903598,"ECCENTRICITY":0.0003675,"INCLINATION":97.3976,"RA_OF_ASC_NODE":41.7846,"ARG_OF_PERICENTER":132.3262,"MEAN_ANOMALY":227.8273,"EPHEMERIS_TYPE":0,"CLASSIFICATION_TYPE":"U","NORAD_CAT_ID":58650,"ELEMENT_SET_NO":999,"REV_AT_EPOCH":12044,"BSTAR":0.00018089,"MEAN_MOTION_DOT":2.076e-5,"MEAN_MOTION_DDOT":0},{"OBJECT_NAME":"STARLINK-35660","OBJECT_ID":"2025-293A","EPOCH":"2026-03-09T11:52:20.599968","MEAN_MOTION":14.98333771,"ECCENTRICITY":0.0003498,"INCLINATION":70.0002,"RA_OF_ASC_NODE":95.1494,"ARG_OF_PERICENTER":266.2084,"MEAN_ANOMALY":93.8675,"EPHEMERIS_TYPE":0,"CLASSIFICATION_TYPE":"U","NORAD_CAT_ID":67003,"ELEMENT_SET_NO":999,"REV_AT_EPOCH":1485,"BSTAR":0.00016551184,"MEAN_MOTION_DOT":1.883e-5,"MEAN_MOTION_DDOT":0}]
